*******************************************************************************
Ephemeris / WWW_USER Fri Mar  7 10:47:50 2025 Pasadena, USA      / Horizons    
*******************************************************************************
Target body name: (2018 TS1)                      {source: JPL#6}
Center body name: Earth (399)                     {source: DE441}
Center-site name: Mauna Kea
*******************************************************************************
Start time      : A.D. 2018-Nov-30 03:51:00.0000 UT      
Stop  time      : A.D. 2018-Nov-30 16:29:00.0000 UT      
Step-size       : 1 minutes
*******************************************************************************
Target pole/equ : undefined
Target radii    : undefined                                                    
Center geodetic : 204.5278, 19.8260847, 4.21024   {E-lon(deg),Lat(deg),Alt(km)}
Center cylindric: 204.5278, 6006.35451, 2151.0229 {E-lon(deg),Dxy(km),Dz(km)}
Center pole/equ : ITRF93                          {East-longitude positive}
Center radii    : 6378.137, 6378.137, 6356.752 km {Equator_a, b, pole_c}       
Target primary  : Sun
Vis. interferer : MOON (R_eq= 1737.400) km        {source: DE441}
Rel. light bend : Sun                             {source: DE441}
Rel. lght bnd GM: 1.3271E+11 km^3/s^2                                          
Small-body perts: Yes                             {source: SB441-N16}
Atmos refraction: NO (AIRLESS)
RA format       : HMS
Time format     : CAL 
Calendar mode   : Mixed Julian/Gregorian
RTS-only print  : NO       
EOP file        : eop.250306.p250602                                           
EOP coverage    : DATA-BASED 1962-JAN-20 TO 2025-MAR-06. PREDICTS-> 2025-JUN-01
Units conversion: 1 au= 149597870.700 km, c= 299792.458 km/s, 1 day= 86400.0 s 
Table cut-offs 1: Elevation (-90.0deg=NO ),Airmass (>38.000=NO), Daylight (YES)
Table cut-offs 2: Solar elongation (  0.0,180.0=NO ),Local Hour Angle( 0.0=NO )
Table cut-offs 3: RA/DEC angular rate (     0.0=NO )                           
*******************************************************************************
Initial IAU76/J2000 heliocentric ecliptic osculating elements (au, days, deg.):
  EPOCH=  2458397.5 ! 2018-Oct-06.00 (TDB)         Residual RMS= .30565        
   EC= .4232280089037878   QR= .7951431742456924   TP= 2458457.9340165281      
   OM= 356.454891650426    W=  97.01949783285009   IN= 2.243887958983723       
  Equivalent ICRF heliocentric cartesian coordinates (au, au/d):
   X= 1.037748414669454E+00  Y= 2.036665248544260E-01  Z= 1.007134111375925E-01
  VX=-1.028941390482545E-02 VY= 1.387292408111162E-02 VZ= 6.642652492995660E-03
Asteroid physical parameters (km, seconds, rotational period in hours):        
   GM= n.a.                RAD= n.a.               ROTPER= n.a.                
   H= 25.7                 G= .150                 B-V= n.a.                   
                           ALBEDO= n.a.            STYP= n.a.                  
*******************************************************************************
 Date__(UT)__HR:MN     R.A._________(ICRF)_________DEC
******************************************************
$$SOE
 2018-Nov-30 05:54     13 26 57.844436 -03 20 27.94221
 2018-Nov-30 05:55     13 26 57.913812 -03 20 28.68954
 2018-Nov-30 05:56     13 26 57.983200 -03 20 29.43689
 2018-Nov-30 05:57     13 26 58.052600 -03 20 30.18427
 2018-Nov-30 05:58     13 26 58.122012 -03 20 30.93168
 2018-Nov-30 05:59     13 26 58.191435 -03 20 31.67912
 2018-Nov-30 06:00     13 26 58.260870 -03 20 32.42658
 2018-Nov-30 06:01     13 26 58.330316 -03 20 33.17408
 2018-Nov-30 06:02     13 26 58.399774 -03 20 33.92160
 2018-Nov-30 06:03     13 26 58.469243 -03 20 34.66915
 2018-Nov-30 06:04     13 26 58.538722 -03 20 35.41673
 2018-Nov-30 06:05     13 26 58.608213 -03 20 36.16434
 2018-Nov-30 06:06     13 26 58.677714 -03 20 36.91198
 2018-Nov-30 06:07     13 26 58.747226 -03 20 37.65964
 2018-Nov-30 06:08     13 26 58.816748 -03 20 38.40733
 2018-Nov-30 06:09     13 26 58.886280 -03 20 39.15505
 2018-Nov-30 06:10     13 26 58.955823 -03 20 39.90280
 2018-Nov-30 06:11     13 26 59.025375 -03 20 40.65058
 2018-Nov-30 06:12     13 26 59.094938 -03 20 41.39839
 2018-Nov-30 06:13     13 26 59.164510 -03 20 42.14623
 2018-Nov-30 06:14     13 26 59.234092 -03 20 42.89409
 2018-Nov-30 06:15     13 26 59.303683 -03 20 43.64198
 2018-Nov-30 06:16     13 26 59.373284 -03 20 44.38991
 2018-Nov-30 06:17     13 26 59.442894 -03 20 45.13786
 2018-Nov-30 06:18     13 26 59.512513 -03 20 45.88584
 2018-Nov-30 06:19     13 26 59.582141 -03 20 46.63385
 2018-Nov-30 06:20     13 26 59.651778 -03 20 47.38188
 2018-Nov-30 06:21     13 26 59.721423 -03 20 48.12995
 2018-Nov-30 06:22     13 26 59.791077 -03 20 48.87804
 2018-Nov-30 06:23     13 26 59.860739 -03 20 49.62617
 2018-Nov-30 06:24     13 26 59.930409 -03 20 50.37432
 2018-Nov-30 06:25     13 27 00.000088 -03 20 51.12251
 2018-Nov-30 06:26     13 27 00.069775 -03 20 51.87072
 2018-Nov-30 06:27     13 27 00.139469 -03 20 52.61896
 2018-Nov-30 06:28     13 27 00.209171 -03 20 53.36723
 2018-Nov-30 06:29     13 27 00.278880 -03 20 54.11553
 2018-Nov-30 06:30     13 27 00.348597 -03 20 54.86385
 2018-Nov-30 06:31     13 27 00.418322 -03 20 55.61221
 2018-Nov-30 06:32     13 27 00.488053 -03 20 56.36060
 2018-Nov-30 06:33     13 27 00.557792 -03 20 57.10901
 2018-Nov-30 06:34     13 27 00.627537 -03 20 57.85746
 2018-Nov-30 06:35     13 27 00.697289 -03 20 58.60593
 2018-Nov-30 06:36     13 27 00.767047 -03 20 59.35444
 2018-Nov-30 06:37     13 27 00.836812 -03 21 00.10297
 2018-Nov-30 06:38     13 27 00.906583 -03 21 00.85153
 2018-Nov-30 06:39     13 27 00.976361 -03 21 01.60013
 2018-Nov-30 06:40     13 27 01.046144 -03 21 02.34875
 2018-Nov-30 06:41     13 27 01.115934 -03 21 03.09740
 2018-Nov-30 06:42     13 27 01.185729 -03 21 03.84608
 2018-Nov-30 06:43     13 27 01.255529 -03 21 04.59479
 2018-Nov-30 06:44     13 27 01.325335 -03 21 05.34353
 2018-Nov-30 06:45     13 27 01.395147 -03 21 06.09230
 2018-Nov-30 06:46     13 27 01.464963 -03 21 06.84110
 2018-Nov-30 06:47     13 27 01.534785 -03 21 07.58993
 2018-Nov-30 06:48     13 27 01.604611 -03 21 08.33878
 2018-Nov-30 06:49     13 27 01.674443 -03 21 09.08767
 2018-Nov-30 06:50     13 27 01.744279 -03 21 09.83659
 2018-Nov-30 06:51     13 27 01.814119 -03 21 10.58553
 2018-Nov-30 06:52     13 27 01.883964 -03 21 11.33451
 2018-Nov-30 06:53     13 27 01.953813 -03 21 12.08352
 2018-Nov-30 06:54     13 27 02.023665 -03 21 12.83255
 2018-Nov-30 06:55     13 27 02.093522 -03 21 13.58162
 2018-Nov-30 06:56     13 27 02.163383 -03 21 14.33071
 2018-Nov-30 06:57     13 27 02.233247 -03 21 15.07984
 2018-Nov-30 06:58     13 27 02.303115 -03 21 15.82899
 2018-Nov-30 06:59     13 27 02.372986 -03 21 16.57818
 2018-Nov-30 07:00     13 27 02.442860 -03 21 17.32739
 2018-Nov-30 07:01     13 27 02.512738 -03 21 18.07663
 2018-Nov-30 07:02     13 27 02.582618 -03 21 18.82591
 2018-Nov-30 07:03     13 27 02.652501 -03 21 19.57521
 2018-Nov-30 07:04     13 27 02.722387 -03 21 20.32454
 2018-Nov-30 07:05     13 27 02.792275 -03 21 21.07391
 2018-Nov-30 07:06     13 27 02.862166 -03 21 21.82330
 2018-Nov-30 07:07     13 27 02.932059 -03 21 22.57272
 2018-Nov-30 07:08     13 27 03.001953 -03 21 23.32217
 2018-Nov-30 07:09     13 27 03.071850 -03 21 24.07166
 2018-Nov-30 07:10     13 27 03.141749 -03 21 24.82117
 2018-Nov-30 07:11     13 27 03.211649 -03 21 25.57071
 2018-Nov-30 07:12     13 27 03.281551 -03 21 26.32028
 2018-Nov-30 07:13     13 27 03.351454 -03 21 27.06988
 2018-Nov-30 07:14     13 27 03.421359 -03 21 27.81951
 2018-Nov-30 07:15     13 27 03.491264 -03 21 28.56918
 2018-Nov-30 07:16     13 27 03.561171 -03 21 29.31887
 2018-Nov-30 07:17     13 27 03.631078 -03 21 30.06859
 2018-Nov-30 07:18     13 27 03.700986 -03 21 30.81834
 2018-Nov-30 07:19     13 27 03.770894 -03 21 31.56812
 2018-Nov-30 07:20     13 27 03.840803 -03 21 32.31793
 2018-Nov-30 07:21     13 27 03.910712 -03 21 33.06777
 2018-Nov-30 07:22     13 27 03.980622 -03 21 33.81764
 2018-Nov-30 07:23     13 27 04.050531 -03 21 34.56754
 2018-Nov-30 07:24     13 27 04.120440 -03 21 35.31747
 2018-Nov-30 07:25     13 27 04.190349 -03 21 36.06743
 2018-Nov-30 07:26     13 27 04.260257 -03 21 36.81742
 2018-Nov-30 07:27     13 27 04.330165 -03 21 37.56744
 2018-Nov-30 07:28     13 27 04.400072 -03 21 38.31749
 2018-Nov-30 07:29     13 27 04.469978 -03 21 39.06756
 2018-Nov-30 07:30     13 27 04.539883 -03 21 39.81767
 2018-Nov-30 07:31     13 27 04.609787 -03 21 40.56781
 2018-Nov-30 07:32     13 27 04.679689 -03 21 41.31798
 2018-Nov-30 07:33     13 27 04.749590 -03 21 42.06818
 2018-Nov-30 07:34     13 27 04.819490 -03 21 42.81841
 2018-Nov-30 07:35     13 27 04.889388 -03 21 43.56866
 2018-Nov-30 07:36     13 27 04.959284 -03 21 44.31895
 2018-Nov-30 07:37     13 27 05.029178 -03 21 45.06927
 2018-Nov-30 07:38     13 27 05.099070 -03 21 45.81962
 2018-Nov-30 07:39     13 27 05.168959 -03 21 46.56999
 2018-Nov-30 07:40     13 27 05.238846 -03 21 47.32040
 2018-Nov-30 07:41     13 27 05.308731 -03 21 48.07083
 2018-Nov-30 07:42     13 27 05.378613 -03 21 48.82130
 2018-Nov-30 07:43     13 27 05.448492 -03 21 49.57180
 2018-Nov-30 07:44     13 27 05.518368 -03 21 50.32232
 2018-Nov-30 07:45     13 27 05.588241 -03 21 51.07288
 2018-Nov-30 07:46     13 27 05.658111 -03 21 51.82346
 2018-Nov-30 07:47     13 27 05.727977 -03 21 52.57407
 2018-Nov-30 07:48     13 27 05.797840 -03 21 53.32472
 2018-Nov-30 07:49     13 27 05.867699 -03 21 54.07539
 2018-Nov-30 07:50     13 27 05.937554 -03 21 54.82609
 2018-Nov-30 07:51     13 27 06.007405 -03 21 55.57683
 2018-Nov-30 07:52     13 27 06.077253 -03 21 56.32759
 2018-Nov-30 07:53     13 27 06.147096 -03 21 57.07838
 2018-Nov-30 07:54     13 27 06.216934 -03 21 57.82920
 2018-Nov-30 07:55     13 27 06.286768 -03 21 58.58005
 2018-Nov-30 07:56     13 27 06.356598 -03 21 59.33093
